start=new Date('2022-02-16T00:00:00.000Z').valueOf();
sats=[{"MEAN_MOTION":"15.06409100","OBJECT_NAME":"STARLINK-2393","BSTAR":"0.00054192000000","ELEMENT_SET_NO":"999","CLASSIFICATION_TYPE":"U","FILE":"3301338","PERIAPSIS":"546.152","SITE":"AFETR","ECCENTRICITY":"0.00014930","DECAY_DATE":null,"PERIOD":"95.592","COUNTRY_CODE":"US","SEMIMAJOR_AXIS":"6925.321","INCLINATION":"53.0550","LAUNCH_DATE":"2021-03-11","MEAN_ANOMALY":"295.9876","MEAN_ELEMENT_THEORY":"SGP4","MEAN_MOTION_DDOT":"0.0000000000000","ARG_OF_PERICENTER":"64.1267","EPOCH":"2022-02-15T13:24:57.688128","OBJECT_ID":"2021-018AB","REV_AT_EPOCH":"5256","TIME_SYSTEM":"UTC","OBJECT_TYPE":"PAYLOAD","APOAPSIS":"548.220","GP_ID":"196034391","CENTER_NAME":"EARTH","REF_FRAME":"TEME","MEAN_MOTION_DOT":"0.00007801","EPHEMERIS_TYPE":"0","RCS_SIZE":"LARGE","TLE_LINE2":"2 47812  53.0550  79.6502 0001493  64.1267 295.9876 15.06409100 52564","NORAD_CAT_ID":"47812","TLE_LINE1":"1 47812U 21018AB  22046.55900102  .00007801  00000-0  54192-3 0  9990","RA_OF_ASC_NODE":"79.6502"},{"TLE_LINE1":"1 47813U 21018AC  22046.47697977  .00002221  00000-0  16796-3 0  9994","RA_OF_ASC_NODE":"50.0214","TLE_LINE2":"2 47813  53.0543  50.0214 0001606  55.9579 304.1562 15.06396956 53379","NORAD_CAT_ID":"47813","RCS_SIZE":"LARGE","MEAN_MOTION_DOT":"0.00002221","EPHEMERIS_TYPE":"0","REF_FRAME":"TEME","TIME_SYSTEM":"UTC","OBJECT_TYPE":"PAYLOAD","APOAPSIS":"548.335","GP_ID":"196027996","CENTER_NAME":"EARTH","OBJECT_ID":"2021-018AC","REV_AT_EPOCH":"5337","MEAN_MOTION_DDOT":"0.0000000000000","ARG_OF_PERICENTER":"55.9579","EPOCH":"2022-02-15T11:26:51.052128","LAUNCH_DATE":"2021-03-11","MEAN_ANOMALY":"304.1562","MEAN_ELEMENT_THEORY":"SGP4","COUNTRY_CODE":"US","INCLINATION":"53.0543","SEMIMAJOR_AXIS":"6925.358","DECAY_DATE":null,"ECCENTRICITY":"0.00016060","PERIOD":"95.592","PERIAPSIS":"546.111","SITE":"AFETR","CLASSIFICATION_TYPE":"U","FILE":"3301229","ELEMENT_SET_NO":"999","MEAN_MOTION":"15.06396956","OBJECT_NAME":"STARLINK-2394","BSTAR":"0.00016796000000"},{"RCS_SIZE":"MEDIUM","TLE_LINE1":"1 47814U 21018AD  22046.76634339  .00002794  00000-0  20646-3 0  9994","RA_OF_ASC_NODE":"68.7261","NORAD_CAT_ID":"47814","TLE_LINE2":"2 47814  53.0553  68.7261 0001686  52.6536 307.4606 15.06388305 53143","GP_ID":"196059595","APOAPSIS":"548.417","CENTER_NAME":"EARTH","TIME_SYSTEM":"UTC","OBJECT_TYPE":"PAYLOAD","REV_AT_EPOCH":"5314","OBJECT_ID":"2021-018AD","EPHEMERIS_TYPE":"0","MEAN_MOTION_DOT":"0.00002794","REF_FRAME":"TEME","COUNTRY_CODE":"US","INCLINATION":"53.0553","SEMIMAJOR_AXIS":"6925.384","DECAY_DATE":null,"ECCENTRICITY":"0.00016860","PERIOD":"95.593","ARG_OF_PERICENTER":"52.6536","EPOCH":"2022-02-15T18:23:32.068896","MEAN_MOTION_DDOT":"0.0000000000000","MEAN_ELEMENT_THEORY":"SGP4","MEAN_ANOMALY":"307.4606","LAUNCH_DATE":"2021-03-11","ELEMENT_SET_NO":"999","OBJECT_NAME":"STARLINK-2395","BSTAR":"0.00020646000000","MEAN_MOTION":"15.06388305","SITE":"AFETR","PERIAPSIS":"546.082","FILE":"3301463","CLASSIFICATION_TYPE":"U"},{"REF_FRAME":"TEME","EPHEMERIS_TYPE":"0","MEAN_MOTION_DOT":"0.00006941","REV_AT_EPOCH":"5314","OBJECT_ID":"2021-018AE","CENTER_NAME":"EARTH","GP_ID":"196059846","APOAPSIS":"548.526","OBJECT_TYPE":"PAYLOAD","TIME_SYSTEM":"UTC","NORAD_CAT_ID":"47815","TLE_LINE2":"2 47815  53.0534  63.8780 0001917  53.0284 307.0880 15.06404940 53141","RA_OF_ASC_NODE":"63.8780","TLE_LINE1":"1 47815U 21018AE  22046.73178530  .00006941  00000-0  48435-3 0  9992","RCS_SIZE":"LARGE","FILE":"3301463","CLASSIFICATION_TYPE":"U","SITE":"AFETR","PERIAPSIS":"545.871","BSTAR":"0.00048435000000","OBJECT_NAME":"STARLINK-2396","MEAN_MOTION":"15.06404940","ELEMENT_SET_NO":"999","MEAN_ELEMENT_THEORY":"SGP4","MEAN_ANOMALY":"307.0880","LAUNCH_DATE":"2021-03-11","EPOCH":"2022-02-15T17:33:46.249920","ARG_OF_PERICENTER":"53.0284","MEAN_MOTION_DDOT":"0.0000000000000","PERIOD":"95.592","DECAY_DATE":null,"ECCENTRICITY":"0.00019170","COUNTRY_CODE":"US","SEMIMAJOR_AXIS":"6925.333","INCLINATION":"53.0534"},{"OBJECT_ID":"2021-018AF","REV_AT_EPOCH":"5309","OBJECT_TYPE":"PAYLOAD","TIME_SYSTEM":"UTC","APOAPSIS":"548.301","GP_ID":"196058093","CENTER_NAME":"EARTH","REF_FRAME":"TEME","MEAN_MOTION_DOT":"0.00004185","EPHEMERIS_TYPE":"0","RCS_SIZE":"LARGE","TLE_LINE2":"2 47816  53.0551  68.2476 0001558  59.8182 300.2961 15.06397254 53092","NORAD_CAT_ID":"47816","RA_OF_ASC_NODE":"68.2476","TLE_LINE1":"1 47816U 21018AF  22046.87322681  .00004185  00000-0  29973-3 0  9990","MEAN_MOTION":"15.06397254","BSTAR":"0.00029973000000","OBJECT_NAME":"STARLINK-2399","ELEMENT_SET_NO":"999","CLASSIFICATION_TYPE":"U","FILE":"3301463","PERIAPSIS":"546.143","SITE":"AFETR","PERIOD":"95.592","DECAY_DATE":null,"ECCENTRICITY":"0.00015580","COUNTRY_CODE":"US","SEMIMAJOR_AXIS":"6925.357","INCLINATION":"53.0551","LAUNCH_DATE":"2021-03-11","MEAN_ANOMALY":"300.2961","MEAN_ELEMENT_THEORY":"SGP4","MEAN_MOTION_DDOT":"0.0000000000000","EPOCH":"2022-02-15T20:57:26.796384","ARG_OF_PERICENTER":"59.8182"},{"TIME_SYSTEM":"UTC","OBJECT_TYPE":"PAYLOAD","GP_ID":"196058345","CENTER_NAME":"EARTH","APOAPSIS":"548.279","OBJECT_ID":"2021-018AG","REV_AT_EPOCH":"5307","MEAN_MOTION_DOT":"0.00003567","EPHEMERIS_TYPE":"0","REF_FRAME":"TEME","RCS_SIZE":"LARGE","RA_OF_ASC_NODE":"68.7475","TLE_LINE1":"1 47817U 21018AG  22046.75897542  .00003567  00000-0  25832-3 0  9994","TLE_LINE2":"2 47817  53.0570  68.7475 0001475  63.8373 296.2768 15.06385528 53071","NORAD_CAT_ID":"47817","ELEMENT_SET_NO":"999","MEAN_MOTION":"15.06385528","OBJECT_NAME":"STARLINK-2400","BSTAR":"0.00025832000000","PERIAPSIS":"546.236","SITE":"AFETR","CLASSIFICATION_TYPE":"U","FILE":"3301463","COUNTRY_CODE":"US","SEMIMAJOR_AXIS":"6925.393","INCLINATION":"53.0570","ECCENTRICITY":"0.00014750","DECAY_DATE":null,"PERIOD":"95.593","MEAN_MOTION_DDOT":"0.0000000000000","ARG_OF_PERICENTER":"63.8373","EPOCH":"2022-02-15T18:12:55.476288","LAUNCH_DATE":"2021-03-11","MEAN_ANOMALY":"296.2768","MEAN_ELEMENT_THEORY":"SGP4"},{"COUNTRY_CODE":"US","SEMIMAJOR_AXIS":"6925.365","INCLINATION":"53.0560","ECCENTRICITY":"0.00015590","DECAY_DATE":null,"PERIOD":"95.592","MEAN_MOTION_DDOT":"0.0000000000000","EPOCH":"2022-02-15T18:52:03.198432","ARG_OF_PERICENTER":"69.1117","LAUNCH_DATE":"2021-03-11","MEAN_ANOMALY":"291.0039","MEAN_ELEMENT_THEORY":"SGP4","ELEMENT_SET_NO":"999","MEAN_MOTION":"15.06394508","BSTAR":"0.00033371000000","OBJECT_NAME":"STARLINK-2401","PERIAPSIS":"546.151","SITE":"AFETR","CLASSIFICATION_TYPE":"U","FILE":"3301463","RCS_SIZE":"LARGE","RA_OF_ASC_NODE":"73.6382","TLE_LINE1":"1 47818U 21018AH  22046.78614813  .00004692  00000-0  33371-3 0  9993","TLE_LINE2":"2 47818  53.0560  73.6382 0001559  69.1117 291.0039 15.06394508 53017","NORAD_CAT_ID":"47818","OBJECT_TYPE":"PAYLOAD","TIME_SYSTEM":"UTC","APOAPSIS":"548.310","GP_ID":"196059096","CENTER_NAME":"EARTH","OBJECT_ID":"2021-018AH","REV_AT_EPOCH":"5301","MEAN_MOTION_DOT":"0.00004692","EPHEMERIS_TYPE":"0","REF_FRAME":"TEME"},{"EPOCH":"2022-02-15T18:18:13.001472","ARG_OF_PERICENTER":"58.5456","MEAN_MOTION_DDOT":"0.0000000000000","MEAN_ELEMENT_THEORY":"SGP4","MEAN_ANOMALY":"301.5703","LAUNCH_DATE":"2021-03-11","COUNTRY_CODE":"US","SEMIMAJOR_AXIS":"6925.320","INCLINATION":"53.0530","PERIOD":"95.592","DECAY_DATE":null,"ECCENTRICITY":"0.00017440","SITE":"AFETR","PERIAPSIS":"545.977","FILE":"3301463","CLASSIFICATION_TYPE":"U","ELEMENT_SET_NO":"999","BSTAR":"0.00056175000000","OBJECT_NAME":"STARLINK-2402","MEAN_MOTION":"15.06409474","RA_OF_ASC_NODE":"68.7437","TLE_LINE1":"1 47819U 21018AJ  22046.76265048  .00008098  00000-0  56175-3 0  9995","NORAD_CAT_ID":"47819","TLE_LINE2":"2 47819  53.0530  68.7437 0001744  58.5456 301.5703 15.06409474 53143","RCS_SIZE":"LARGE","EPHEMERIS_TYPE":"0","MEAN_MOTION_DOT":"0.00008098","REF_FRAME":"TEME","CENTER_NAME":"EARTH","GP_ID":"196059347","APOAPSIS":"548.392","OBJECT_TYPE":"PAYLOAD","TIME_SYSTEM":"UTC","REV_AT_EPOCH":"5314","OBJECT_ID":"2021-018AJ"},{"REF_FRAME":"TEME","MEAN_MOTION_DOT":"0.00001301","EPHEMERIS_TYPE":"0","OBJECT_ID":"2021-018AK","REV_AT_EPOCH":"5301","TIME_SYSTEM":"UTC","OBJECT_TYPE":"PAYLOAD","APOAPSIS":"548.232","GP_ID":"196058593","CENTER_NAME":"EARTH","TLE_LINE2":"2 47820  53.0539  78.2418 0001447  60.2829 299.8304 15.06394509 53017","NORAD_CAT_ID":"47820","RA_OF_ASC_NODE":"78.2418","TLE_LINE1":"1 47820U 21018AK  22046.87599169  .00001301  00000-0  10625-3 0  9993","RCS_SIZE":"LARGE","CLASSIFICATION_TYPE":"U","FILE":"3301463","PERIAPSIS":"546.228","SITE":"AFETR","MEAN_MOTION":"15.06394509","OBJECT_NAME":"STARLINK-2403","BSTAR":"0.00010625000000","ELEMENT_SET_NO":"999","LAUNCH_DATE":"2021-03-11","MEAN_ANOMALY":"299.8304","MEAN_ELEMENT_THEORY":"SGP4","MEAN_MOTION_DDOT":"0.0000000000000","ARG_OF_PERICENTER":"60.2829","EPOCH":"2022-02-15T21:01:25.682016","ECCENTRICITY":"0.00014470","DECAY_DATE":null,"PERIOD":"95.592","SEMIMAJOR_AXIS":"6925.365","COUNTRY_CODE":"US","INCLINATION":"53.0539"},{"MEAN_MOTION_DOT":"0.00003037","EPHEMERIS_TYPE":"0","REF_FRAME":"TEME","TIME_SYSTEM":"UTC","OBJECT_TYPE":"PAYLOAD","APOAPSIS":"548.313","GP_ID":"196027997","CENTER_NAME":"EARTH","OBJECT_ID":"2021-018AL","REV_AT_EPOCH":"5304","TLE_LINE1":"1 47821U 21018AL  22046.52212492  .00003037  00000-0  22279-3 0  9993","RA_OF_ASC_NODE":"69.8223","TLE_LINE2":"2 47821  53.0545  69.8223 0001529  71.1449 288.9706 15.06386795 53041","NORAD_CAT_ID":"47821","RCS_SIZE":"LARGE","PERIAPSIS":"546.195","SITE":"AFETR","CLASSIFICATION_TYPE":"U","FILE":"3301229","ELEMENT_SET_NO":"999","MEAN_MOTION":"15.06386795","OBJECT_NAME":"STARLINK-2406","BSTAR":"0.00022279000000","MEAN_MOTION_DDOT":"0.0000000000000","ARG_OF_PERICENTER":"71.1449","EPOCH":"2022-02-15T12:31:51.593088","LAUNCH_DATE":"2021-03-11","MEAN_ANOMALY":"288.9706","MEAN_ELEMENT_THEORY":"SGP4","SEMIMAJOR_AXIS":"6925.389","COUNTRY_CODE":"US","INCLINATION":"53.0545","PERIOD":"95.593","DECAY_DATE":null,"ECCENTRICITY":"0.00015290"}];
